HELIOS 1B               
1 25977U 99064A   20268.43858823  .00000045  00000-0  12776-4 0  9993
2 25977  98.2936  66.8453 0002128  58.9982 301.1439 14.82495323389782
TERRA                   
1 25994U 99068A   20268.46656175  .00000085  00000-0  28973-4 0  9995
2 25994  98.2048 341.3420 0001446  99.7161 260.4205 14.57111571104734
SL-16 R/B               
1 26070U 00006B   20268.45717179 -.00000193  00000-0 -74243-4 0  9999
2 26070  71.0018 325.2108 0017895 326.9439  33.0564 14.15469011 66646
MTI                     
1 26102U 00014A   20268.19957385  .00003627  00000-0  52668-4 0  9990
2 26102  97.4871 155.2664 0005955 213.6023 146.4855 15.56521466139871
TITAN 4B R/B            
1 26474U 00047B   20268.13749955  .00000079  00000-0  17784-4 0  9992
2 26474  67.9942 164.0530 0051018  88.8745 271.8242 14.95989274 94003
ENVISAT                 
1 27386U 02009A   20268.51828708  .00000007  00000-0  15866-4 0  9991
2 27386  98.1392 270.3672 0001238  86.4774  24.2574 14.37992703972789
IDEFIX & ARIANE 42P R/B 
1 27422U 02021B   20268.44246906 -.00000007  00000-0  13708-4 0  9996
2 27422  98.3619 225.4604 0011248 302.4687  57.5408 14.29294186959305
AQUA                    
1 27424U 02022A   20268.51208493  .00000076  00000-0  26953-4 0  9997
2 27424  98.1968 207.7050 0002644  58.6129  77.6617 14.57115456978298
CZ-4B R/B               
1 27432U 02024C   20268.47775816 -.00000027  00000-0  10213-4 0  9990
2 27432  99.0913 272.3633 0049456 256.8284 218.3975 14.14097236947642
MIDORI II (ADEOS-II)    
1 27597U 02056A   20268.44059592  .00000028  00000-0  28710-4 0  9991
2 27597  98.5278 213.5754 0002111  72.6457 287.4955 14.27460369925934
H-2A R/B                
1 27601U 02056E   20268.31896994  .00000043  00000-0  30518-4 0  9994
2 27601  98.2189 298.9679 0071737 344.1506  25.7700 14.31969410928843
CZ-4B R/B               
1 28059U 03049C   20268.37553585  .00000023  00000-0  17331-4 0  9993
2 28059  98.4817 186.0054 0049686 194.9110 165.0623 14.52610710897177
CZ-2C R/B               
1 28222U 04012C   20268.55721771  .00000422  00000-0  29097-4 0  9995
2 28222  97.6884 231.4254 0048345  52.1870  12.7852 15.10468814900954
SL-16 R/B               
1 28353U 04021B   20267.94706876 -.00000344  00000-0 -15499-3 0  9996
2 28353  70.9977  92.7562 0005803 210.7634 149.3149 14.14236341841072
CZ-4B R/B               
1 28415U 04035C   20268.11176961  .00000146  00000-0  13792-4 0  9999
2 28415  97.6048 308.5586 0051934  17.8673 342.4365 15.06910385878496
CZ-2C R/B               
1 28480U 04046B   20268.35971032 -.00000038  00000-0  12049-5 0  9997
2 28480  98.0717 295.6057 0140705 292.4204  76.6264 14.25728191824511
ARIANE 5 R/B            
1 28499U 04049H   20268.21380649  .00000023  00000-0  10451-4 0  9990
2 28499  98.0593  10.3252 0091151 314.7096 100.9568 14.80045797850702
CZ-2D R/B               
1 28738U 05024B   20268.31473910  .00000221  00000-0  16444-4 0  9993
2 28738  97.3790 287.5920 0011424 194.6183 165.4719 15.12102372836365
SUZAKU (ASTRO-EII)      
1 28773U 05025A   20268.20485535  .00001079  00000-0  47933-4 0  9996
2 28773  31.3818  94.4894 0004230 122.3231 237.7826 15.17690424838973
ALOS (DAICHI)           
1 28931U 06002A   20268.46827504  .00000073  00000-0  22980-4 0  9990
2 28931  97.8531 249.3907 0001780  97.7566 262.3834 14.62740495782173
H-2A R/B                
1 28932U 06002B   20268.49672587  .00000568  00000-0  58058-4 0  9997
2 28932  98.3287 264.1414 0088638 358.4654 113.9597 14.92289515795915
AKARI (ASTRO-F)         
1 28939U 06005A   20268.50189922  .00004971  00000-0  13154-3 0  9994
2 28939  98.2419 254.0694 0091649 338.5242  21.2163 15.34750371796083
RESURS-DK 1             
1 29228U 06021A   20268.47420915  .00000065  00000-0  12273-4 0  9992
2 29228  69.9345 295.9170 0007452 293.9686  66.0694 15.02568720787622
GENESIS 1               
1 29252U 06029A   20268.48143289  .00000176  00000-0  18517-4 0  9994
2 29252  64.5214 337.6725 0010189  23.3744 336.7841 15.18211967783134
CZ-4B R/B               
1 29507U 06046C   20268.31104668 -.00000645  00000-0 -44833-4 0  9999
2 29507  97.7350 289.9139 0049446 189.2616 170.7701 15.00575870760191
CZ-2C R/B               
1 31114U 07010B   20268.49295582  .00000025  00000-0  30573-4 0  9999
2 31114  98.2506 114.6686 0059377 339.6284  20.2526 14.19331191697057
COSMO-SKYMED 1          
1 31598U 07023A   20268.44825664 -.00000316  00000-0 -33189-4 0  9995
2 31598  97.8879  90.1720 0001488  81.9057 278.2321 14.82149868719492
GENESIS 2               
1 31789U 07028A   20268.49196941  .00000457  00000-0  32861-4 0  9996
2 31789  64.5062  19.4221 0034528 234.0728 125.7190 15.17354779730206
COSMOS 2428             
1 31792U 07029A   20268.44058879 -.00000318  00000-0 -14648-3 0  9993
2 31792  70.9010  65.0514 0010699 284.4366  75.5567 14.12278229682751
SL-16 R/B               
1 31793U 07029B   20268.49695657  .00000113  00000-0  83785-4 0  9990
2 31793  70.9765  38.3040 0001753 257.5846 166.3764 14.14430141683687
KORONAS-FOTON           
1 33504U 09003A   20268.33162951  .00000230  00000-0  10346-4 0  9998
2 33504  82.4404 124.4473 0017711 299.6934  60.2535 15.15704249642464
H-2A R/B                
1 38341U 12025E   20268.49345693  .00000232  00000-0  34884-4 0  9998
2 38341  98.5125  69.9934 0054282 273.8538  85.6469 14.84072947452058
CUSAT 2 & FALCON 9 R/B  
1 39271U 13055G   20268.24253853  .00003688  00000-0  88880-4 0  9997
2 39271  80.9678 160.6784 0583393 232.8859 121.7670 14.49069196365032
SL-4 R/B                
1 39679U 14021B   20268.55585653  .00000185  00000-0  27024-4 0  9995
2 39679  51.6186   7.4882 0171086 289.2863  68.9673 15.06489179353968
ALOS-2                  
1 39766U 14029A   20268.52563006  .00000087  00000-0  18480-4 0  9992
2 39766  97.9224   3.7065 0001509  83.5291 276.6087 14.79473330342343
CZ-2C R/B               
1 40306U 14071B   20268.58423758  .00003806  00000-0  80938-4 0  9995
2 40306  97.3327 216.0390 0015946 157.8669 202.3272 15.45498253329158
SL-27 R/B               
1 40354U 14084B   20268.51371246  .00001015  00000-0  25839-4 0  9998
2 40354  74.7389 183.1379 0038231 320.1859  39.6549 15.40371168323384
YAOGAN 29               
1 41038U 15069A   20268.52255687 -.00000045  00000-0  10014-5 0  9996
2 41038  98.0181 256.3694 0000817  49.1837 310.9442 14.80459396260930
ASTRO-H (HITOMI)        
1 41337U 16012A   20267.97014490  .00000226  00000-0  11396-4 0  9993
2 41337  31.0053 105.1090 0012471 324.2190  35.7608 14.98709640252291
SHENZHOU-11 MODULE      
1 41868U 16061G   20268.38483035  .00309168  60643-4  18633-3 0  9997
2 41868  42.7823 229.6026 0011098 167.7333 327.3587 16.17344552221964
HXMT (HUIYAN)           
1 42758U 17034A   20268.57531353  .00000101  00000-0  20003-4 0  9992
2 42758  43.0170 212.1977 0011735 291.8425 237.3514 15.08892925180845
CZ-2C R/B               
1 43521U 18054D   20268.52020439  .00000698  00000-0  39600-4 0  9991
2 43521  35.1539 289.4006 0083313 271.4962  87.6210 15.11081074124145
AEOLUS                  
1 43600U 18066A   20268.49379117  .00040812  00000-0  15996-3 0  9991
2 43600  96.7213 273.4030 0005682  88.1388 272.0536 15.86855174121075
SAOCOM 1A               
1 43641U 18076A   20268.45652309 -.00000501  00000-0 -56413-4 0  9993
2 43641  97.8898  93.1612 0001370  83.4967 276.6417 14.82144351106260
CREW DRAGON DEMO-1 DEB  
1 44064U 19011B   20268.56877209  .00023676  00000-0  21972-3 0  9990
2 44064  51.6328 169.4306 0003840  85.3641 274.7794 15.67325023 88444
